{
  "type": "FeatureCollection",
  "features": [
    {
      "type": "Feature",
      "properties": {
        "norad_id": 34350,
        "name": "IRIDIUM 33 DEB",
        "group": "iridium-33-debris",
        "lat": -65.9941480769478,
        "lon": -174.05300154770777,
        "alt_km": 762.0869339344572,
        "timestamp": "2025-12-24T14:43:29.386817+00:00",
        "meta_object_name": "IRIDIUM 33 DEB",
        "meta_object_id": "1997-051ES",
        "meta_epoch": "2025-12-24T00:32:43.402848",
        "meta_mean_motion": 14.45412169,
        "meta_eccentricity": 0.00234875,
        "meta_inclination": 86.3272,
        "meta_ra_of_asc_node": 357.9107,
        "meta_arg_of_pericenter": 100.6701,
        "meta_mean_anomaly": 313.0828,
        "meta_ephemeris_type": 0,
        "meta_classification_type": "U",
        "meta_norad_cat_id": 34350,
        "meta_element_set_no": 999,
        "meta_rev_at_epoch": 88456,
        "meta_bstar": 0.00031816232,
        "meta_mean_motion_dot": 1.143e-05,
        "meta_mean_motion_ddot": 0,
        "tle_line1": "1 34350U 97051ES  25358.02272457  .00001143  00000+0  31816-3 0  9999",
        "tle_line2": "2 34350  86.3272 357.9107 0023487 100.6701 313.0828 14.45412169884569"
      },
      "geometry": {
        "type": "Point",
        "coordinates": [
          -174.05300154770777,
          -65.9941480769478
        ]
      }
    },
    {
      "type": "Feature",
      "properties": {
        "norad_id": 34366,
        "name": "IRIDIUM 33 DEB",
        "group": "iridium-33-debris",
        "lat": -45.65996141234485,
        "lon": -132.1253906700389,
        "alt_km": 727.864390439403,
        "timestamp": "2025-12-24T14:43:29.386827+00:00",
        "meta_object_name": "IRIDIUM 33 DEB",
        "meta_object_id": "1997-051FJ",
        "meta_epoch": "2025-12-24T02:15:45.126720",
        "meta_mean_motion": 14.54140712,
        "meta_eccentricity": 0.00230255,
        "meta_inclination": 86.3684,
        "meta_ra_of_asc_node": 44.3742,
        "meta_arg_of_pericenter": 104.3991,
        "meta_mean_anomaly": 284.5234,
        "meta_ephemeris_type": 0,
        "meta_classification_type": "U",
        "meta_norad_cat_id": 34366,
        "meta_element_set_no": 999,
        "meta_rev_at_epoch": 88347,
        "meta_bstar": 0.00091699807,
        "meta_mean_motion_dot": 3.91e-05,
        "meta_mean_motion_ddot": 0,
        "tle_line1": "1 34366U 97051FJ  25358.09427230  .00003910  00000+0  91700-3 0  9996",
        "tle_line2": "2 34366  86.3684  44.3742 0023025 104.3991 284.5234 14.54140712883479"
      },
      "geometry": {
        "type": "Point",
        "coordinates": [
          -132.1253906700389,
          -45.65996141234485
        ]
      }
    },
    {
      "type": "Feature",
      "properties": {
        "norad_id": 34375,
        "name": "IRIDIUM 33 DEB",
        "group": "iridium-33-debris",
        "lat": 38.618346664445255,
        "lon": -179.22853669854155,
        "alt_km": 781.5060205352329,
        "timestamp": "2025-12-24T14:43:29.386838+00:00",
        "meta_object_name": "IRIDIUM 33 DEB",
        "meta_object_id": "1997-051FT",
        "meta_epoch": "2025-12-23T23:53:27.636000",
        "meta_mean_motion": 14.18011996,
        "meta_eccentricity": 0.0103696,
        "meta_inclination": 86.4323,
        "meta_ra_of_asc_node": 178.164,
        "meta_arg_of_pericenter": 91.5399,
        "meta_mean_anomaly": 34.9546,
        "meta_ephemeris_type": 0,
        "meta_classification_type": "U",
        "meta_norad_cat_id": 34375,
        "meta_element_set_no": 999,
        "meta_rev_at_epoch": 86871,
        "meta_bstar": 0.00038612,
        "meta_mean_motion_dot": 8.53e-06,
        "meta_mean_motion_ddot": 0,
        "tle_line1": "1 34375U 97051FT  25357.99545875  .00000853  00000+0  38612-3 0  9996",
        "tle_line2": "2 34375  86.4323 178.1640 0103696  91.5399  34.9546 14.18011996868719"
      },
      "geometry": {
        "type": "Point",
        "coordinates": [
          -179.22853669854155,
          38.618346664445255
        ]
      }
    },
    {
      "type": "Feature",
      "properties": {
        "norad_id": 34376,
        "name": "IRIDIUM 33 DEB",
        "group": "iridium-33-debris",
        "lat": 22.06083754410437,
        "lon": 179.69723843802078,
        "alt_km": 666.886497704887,
        "timestamp": "2025-12-24T14:43:29.386849+00:00",
        "meta_object_name": "IRIDIUM 33 DEB",
        "meta_object_id": "1997-051FU",
        "meta_epoch": "2025-12-24T00:52:22.525248",
        "meta_mean_motion": 14.62714709,
        "meta_eccentricity": 0.00283752,
        "meta_inclination": 86.2981,
        "meta_ra_of_asc_node": 1.4602,
        "meta_arg_of_pericenter": 129.6152,
        "meta_mean_anomaly": 230.7571,
        "meta_ephemeris_type": 0,
        "meta_classification_type": "U",
        "meta_norad_cat_id": 34376,
        "meta_element_set_no": 999,
        "meta_rev_at_epoch": 88172,
        "meta_bstar": 0.0014767805,
        "meta_mean_motion_dot": 7.587e-05,
        "meta_mean_motion_ddot": 0,
        "tle_line1": "1 34376U 97051FU  25358.03637182  .00007587  00000+0  14768-2 0  9992",
        "tle_line2": "2 34376  86.2981   1.4602 0028375 129.6152 230.7571 14.62714709881725"
      },
      "geometry": {
        "type": "Point",
        "coordinates": [
          179.69723843802078,
          22.06083754410437
        ]
      }
    },
    {
      "type": "Feature",
      "properties": {
        "norad_id": 34486,
        "name": "IRIDIUM 33 DEB",
        "group": "iridium-33-debris",
        "lat": -0.09083617888581122,
        "lon": 6.535637365359182,
        "alt_km": 579.4385351351903,
        "timestamp": "2025-12-24T14:43:29.386860+00:00",
        "meta_object_name": "IRIDIUM 33 DEB",
        "meta_object_id": "1997-051GB",
        "meta_epoch": "2025-12-24T00:31:38.959680",
        "meta_mean_motion": 14.96285435,
        "meta_eccentricity": 0.00139233,
        "meta_inclination": 86.3926,
        "meta_ra_of_asc_node": 6.8146,
        "meta_arg_of_pericenter": 80.2681,
        "meta_mean_anomaly": 335.5299,
        "meta_ephemeris_type": 0,
        "meta_classification_type": "U",
        "meta_norad_cat_id": 34486,
        "meta_element_set_no": 999,
        "meta_rev_at_epoch": 89155,
        "meta_bstar": 0.0020880938,
        "meta_mean_motion_dot": 0.00023707,
        "meta_mean_motion_ddot": 0,
        "tle_line1": "1 34486U 97051GB  25358.02197870  .00023707  00000+0  20881-2 0  9993",
        "tle_line2": "2 34486  86.3926   6.8146 0013923  80.2681 335.5299 14.96285435891550"
      },
      "geometry": {
        "type": "Point",
        "coordinates": [
          6.535637365359182,
          -0.09083617888581122
        ]
      }
    },
    {
      "type": "Feature",
      "properties": {
        "norad_id": 34487,
        "name": "IRIDIUM 33 DEB",
        "group": "iridium-33-debris",
        "lat": -78.9331224194755,
        "lon": -11.821650989901691,
        "alt_km": 778.6820632114113,
        "timestamp": "2025-12-24T14:43:29.386880+00:00",
        "meta_object_name": "IRIDIUM 33 DEB",
        "meta_object_id": "1997-051GC",
        "meta_epoch": "2025-12-24T00:25:07.192704",
        "meta_mean_motion": 14.43230021,
        "meta_eccentricity": 0.00332562,
        "meta_inclination": 86.3429,
        "meta_ra_of_asc_node": 7.5212,
        "meta_arg_of_pericenter": 93.3155,
        "meta_mean_anomaly": 332.1294,
        "meta_ephemeris_type": 0,
        "meta_classification_type": "U",
        "meta_norad_cat_id": 34487,
        "meta_element_set_no": 999,
        "meta_rev_at_epoch": 88411,
        "meta_bstar": 0.00017640846,
        "meta_mean_motion_dot": 6.17e-06,
        "meta_mean_motion_ddot": 0,
        "tle_line1": "1 34487U 97051GC  25358.01744436  .00000617  00000+0  17641-3 0  9995",
        "tle_line2": "2 34487  86.3429   7.5212 0033256  93.3155 332.1294 14.43230021884118"
      },
      "geometry": {
        "type": "Point",
        "coordinates": [
          -11.821650989901691,
          -78.9331224194755
        ]
      }
    },
    {
      "type": "Feature",
      "properties": {
        "norad_id": 34488,
        "name": "IRIDIUM 33 DEB",
        "group": "iridium-33-debris",
        "lat": 29.04791786152162,
        "lon": -58.03381570144574,
        "alt_km": 460.8794882265702,
        "timestamp": "2025-12-24T14:43:29.386898+00:00",
        "meta_object_name": "IRIDIUM 33 DEB",
        "meta_object_id": "1997-051GD",
        "meta_epoch": "2025-12-23T07:14:56.478912",
        "meta_mean_motion": 15.32002527,
        "meta_eccentricity": 0.00097213,
        "meta_inclination": 86.3275,
        "meta_ra_of_asc_node": 300.5735,
        "meta_arg_of_pericenter": 36.3388,
        "meta_mean_anomaly": 323.852,
        "meta_ephemeris_type": 0,
        "meta_classification_type": "U",
        "meta_norad_cat_id": 34488,
        "meta_element_set_no": 999,
        "meta_rev_at_epoch": 89401,
        "meta_bstar": 0.0045068376,
        "meta_mean_motion_dot": 0.00141753,
        "meta_mean_motion_ddot": 0,
        "tle_line1": "1 34488U 97051GD  25357.30204258  .00141753  00000+0  45068-2 0  9990",
        "tle_line2": "2 34488  86.3275 300.5735 0009721  36.3388 323.8520 15.32002527894015"
      },
      "geometry": {
        "type": "Point",
        "coordinates": [
          -58.03381570144574,
          29.04791786152162
        ]
      }
    }
  ]
}